HIMAWARI-8              
1 40267U 14060A   24258.51438528 -.00000280  00000+0  00000+0 0  9996
2 40267   0.0066 147.5256 0000899  15.3260 156.9729  1.00270726 36335
